[{"OBJECT_NAME":"ONEWEB-0721","OBJECT_ID":"2023-068R","EPOCH":"2026-01-30T05:06:18.080928","MEAN_MOTION":13.22458919,"ECCENTRICITY":0.0001676,"INCLINATION":86.6821,"RA_OF_ASC_NODE":129.5546,"ARG_OF_PERICENTER":107.0332,"MEAN_ANOMALY":253.0985,"EPHEMERIS_TYPE":0,"CLASSIFICATION_TYPE":"U","NORAD_CAT_ID":56725,"ELEMENT_SET_NO":999,"REV_AT_EPOCH":13970,"BSTAR":0.00029526175,"MEAN_MOTION_DOT":1.38e-6,"MEAN_MOTION_DDOT":0},{"OBJECT_NAME":"ONEWEB-0015","OBJECT_ID":"2024-188A","EPOCH":"2026-01-30T06:55:35.300064","MEAN_MOTION":13.1141461,"ECCENTRICITY":0.00022797,"INCLINATION":87.8812,"RA_OF_ASC_NODE":48.5399,"ARG_OF_PERICENTER":81.2179,"MEAN_ANOMALY":278.9207,"EPHEMERIS_TYPE":0,"CLASSIFICATION_TYPE":"U","NORAD_CAT_ID":61594,"ELEMENT_SET_NO":999,"REV_AT_EPOCH":6638,"BSTAR":-0.00046198757,"MEAN_MOTION_DOT":-1.51e-6,"MEAN_MOTION_DDOT":0},{"OBJECT_NAME":"ONEWEB-0687","OBJECT_ID":"2024-188B","EPOCH":"2026-01-30T00:38:47.662656","MEAN_MOTION":13.17650763,"ECCENTRICITY":0.0002409,"INCLINATION":87.9076,"RA_OF_ASC_NODE":33.3421,"ARG_OF_PERICENTER":90.8735,"MEAN_ANOMALY":269.2673,"EPHEMERIS_TYPE":0,"CLASSIFICATION_TYPE":"U","NORAD_CAT_ID":61595,"ELEMENT_SET_NO":999,"REV_AT_EPOCH":6770,"BSTAR":-6.309462e-5,"MEAN_MOTION_DOT":-1.2e-7,"MEAN_MOTION_DDOT":0},{"OBJECT_NAME":"ONEWEB-0688","OBJECT_ID":"2024-188C","EPOCH":"2026-01-30T06:48:09.454464","MEAN_MOTION":13.17647307,"ECCENTRICITY":0.00028765,"INCLINATION":87.9076,"RA_OF_ASC_NODE":33.2906,"ARG_OF_PERICENTER":70.6424,"MEAN_ANOMALY":289.5018,"EPHEMERIS_TYPE":0,"CLASSIFICATION_TYPE":"U","NORAD_CAT_ID":61596,"ELEMENT_SET_NO":999,"REV_AT_EPOCH":6773,"BSTAR":0.00018084707,"MEAN_MOTION_DOT":8.3e-7,"MEAN_MOTION_DDOT":0},{"OBJECT_NAME":"ONEWEB-0689","OBJECT_ID":"2024-188D","EPOCH":"2026-01-30T00:24:56.954304","MEAN_MOTION":13.11417952,"ECCENTRICITY":0.00021127,"INCLINATION":87.8826,"RA_OF_ASC_NODE":48.5293,"ARG_OF_PERICENTER":98.0125,"MEAN_ANOMALY":262.1242,"EPHEMERIS_TYPE":0,"CLASSIFICATION_TYPE":"U","NORAD_CAT_ID":61597,"ELEMENT_SET_NO":999,"REV_AT_EPOCH":6634,"BSTAR":0.00050058939,"MEAN_MOTION_DOT":1.9e-6,"MEAN_MOTION_DDOT":0},{"OBJECT_NAME":"ONEWEB-0690","OBJECT_ID":"2024-188E","EPOCH":"2026-01-30T02:29:28.961088","MEAN_MOTION":13.11417732,"ECCENTRICITY":0.00012433,"INCLINATION":87.8828,"RA_OF_ASC_NODE":48.5325,"ARG_OF_PERICENTER":73.8287,"MEAN_ANOMALY":286.2978,"EPHEMERIS_TYPE":0,"CLASSIFICATION_TYPE":"U","NORAD_CAT_ID":61598,"ELEMENT_SET_NO":999,"REV_AT_EPOCH":6653,"BSTAR":0.0013007298,"MEAN_MOTION_DOT":4.74e-6,"MEAN_MOTION_DDOT":0},{"OBJECT_NAME":"ONEWEB-0691","OBJECT_ID":"2024-188F","EPOCH":"2026-01-30T07:51:45.527328","MEAN_MOTION":13.11418651,"ECCENTRICITY":0.00021772,"INCLINATION":87.8833,"RA_OF_ASC_NODE":48.3859,"ARG_OF_PERICENTER":84.7095,"MEAN_ANOMALY":275.4281,"EPHEMERIS_TYPE":0,"CLASSIFICATION_TYPE":"U","NORAD_CAT_ID":61599,"ELEMENT_SET_NO":999,"REV_AT_EPOCH":6641,"BSTAR":0.00089537456,"MEAN_MOTION_DOT":3.3e-6,"MEAN_MOTION_DDOT":0},{"OBJECT_NAME":"ONEWEB-0692","OBJECT_ID":"2024-188G","EPOCH":"2026-01-30T02:51:26.951616","MEAN_MOTION":13.11414933,"ECCENTRICITY":0.00018277,"INCLINATION":87.8811,"RA_OF_ASC_NODE":48.5673,"ARG_OF_PERICENTER":121.5655,"MEAN_ANOMALY":238.5651,"EPHEMERIS_TYPE":0,"CLASSIFICATION_TYPE":"U","NORAD_CAT_ID":61600,"ELEMENT_SET_NO":999,"REV_AT_EPOCH":6637,"BSTAR":0.0013116333,"MEAN_MOTION_DOT":4.78e-6,"MEAN_MOTION_DDOT":0},{"OBJECT_NAME":"ONEWEB-0693","OBJECT_ID":"2024-188H","EPOCH":"2026-01-30T01:37:06.736512","MEAN_MOTION":13.17646747,"ECCENTRICITY":0.00014093,"INCLINATION":87.9079,"RA_OF_ASC_NODE":33.355,"ARG_OF_PERICENTER":62.1909,"MEAN_ANOMALY":297.9365,"EPHEMERIS_TYPE":0,"CLASSIFICATION_TYPE":"U","NORAD_CAT_ID":61601,"ELEMENT_SET_NO":999,"REV_AT_EPOCH":6769,"BSTAR":0.00014929578,"MEAN_MOTION_DOT":7.1e-7,"MEAN_MOTION_DDOT":0},{"OBJECT_NAME":"ONEWEB-0695","OBJECT_ID":"2024-188J","EPOCH":"2026-01-30T02:17:14.883360","MEAN_MOTION":13.11423214,"ECCENTRICITY":0.00022216,"INCLINATION":87.8812,"RA_OF_ASC_NODE":48.5619,"ARG_OF_PERICENTER":103.7916,"MEAN_ANOMALY":256.3459,"EPHEMERIS_TYPE":0,"CLASSIFICATION_TYPE":"U","NORAD_CAT_ID":61602,"ELEMENT_SET_NO":999,"REV_AT_EPOCH":6636,"BSTAR":-0.0021393023,"MEAN_MOTION_DOT":-7.46e-6,"MEAN_MOTION_DDOT":0},{"OBJECT_NAME":"ONEWEB-0697","OBJECT_ID":"2024-188K","EPOCH":"2026-01-30T06:43:23.250144","MEAN_MOTION":13.11414633,"ECCENTRICITY":0.0001752,"INCLINATION":87.8813,"RA_OF_ASC_NODE":48.5147,"ARG_OF_PERICENTER":118.2533,"MEAN_ANOMALY":241.8772,"EPHEMERIS_TYPE":0,"CLASSIFICATION_TYPE":"U","NORAD_CAT_ID":61603,"ELEMENT_SET_NO":999,"REV_AT_EPOCH":6637,"BSTAR":0.00073183861,"MEAN_MOTION_DOT":2.72e-6,"MEAN_MOTION_DDOT":0},{"OBJECT_NAME":"ONEWEB-0698","OBJECT_ID":"2024-188L","EPOCH":"2026-01-30T02:31:55.409088","MEAN_MOTION":13.11417374,"ECCENTRICITY":8.454e-5,"INCLINATION":87.8815,"RA_OF_ASC_NODE":48.5652,"ARG_OF_PERICENTER":124.2655,"MEAN_ANOMALY":235.8553,"EPHEMERIS_TYPE":0,"CLASSIFICATION_TYPE":"U","NORAD_CAT_ID":61604,"ELEMENT_SET_NO":999,"REV_AT_EPOCH":6637,"BSTAR":0.0014319294,"MEAN_MOTION_DOT":5.2e-6,"MEAN_MOTION_DDOT":0},{"OBJECT_NAME":"ONEWEB-0699","OBJECT_ID":"2024-188M","EPOCH":"2026-01-30T07:31:58.798272","MEAN_MOTION":13.10371736,"ECCENTRICITY":0.00016521,"INCLINATION":87.8764,"RA_OF_ASC_NODE":63.7397,"ARG_OF_PERICENTER":118.1391,"MEAN_ANOMALY":241.9903,"EPHEMERIS_TYPE":0,"CLASSIFICATION_TYPE":"U","NORAD_CAT_ID":61605,"ELEMENT_SET_NO":999,"REV_AT_EPOCH":6525,"BSTAR":0.001595381,"MEAN_MOTION_DOT":5.7e-6,"MEAN_MOTION_DDOT":0},{"OBJECT_NAME":"ONEWEB-0700","OBJECT_ID":"2024-188N","EPOCH":"2026-01-30T03:54:28.331424","MEAN_MOTION":13.10375709,"ECCENTRICITY":0.00021036,"INCLINATION":87.8775,"RA_OF_ASC_NODE":63.6599,"ARG_OF_PERICENTER":115.5628,"MEAN_ANOMALY":244.5717,"EPHEMERIS_TYPE":0,"CLASSIFICATION_TYPE":"U","NORAD_CAT_ID":61606,"ELEMENT_SET_NO":999,"REV_AT_EPOCH":6522,"BSTAR":0.001109278,"MEAN_MOTION_DOT":4.0e-6,"MEAN_MOTION_DDOT":0},{"OBJECT_NAME":"ONEWEB-0701","OBJECT_ID":"2024-188P","EPOCH":"2026-01-30T02:28:22.717344","MEAN_MOTION":13.10371715,"ECCENTRICITY":0.0001708,"INCLINATION":87.876,"RA_OF_ASC_NODE":63.7818,"ARG_OF_PERICENTER":123.8754,"MEAN_ANOMALY":236.2536,"EPHEMERIS_TYPE":0,"CLASSIFICATION_TYPE":"U","NORAD_CAT_ID":61607,"ELEMENT_SET_NO":999,"REV_AT_EPOCH":6522,"BSTAR":-0.00058442943,"MEAN_MOTION_DOT":-1.91e-6,"MEAN_MOTION_DDOT":0},{"OBJECT_NAME":"ONEWEB-0702","OBJECT_ID":"2024-188Q","EPOCH":"2026-01-30T07:17:33.243936","MEAN_MOTION":13.11417004,"ECCENTRICITY":0.00020589,"INCLINATION":87.8829,"RA_OF_ASC_NODE":48.4078,"ARG_OF_PERICENTER":122.5464,"MEAN_ANOMALY":237.5863,"EPHEMERIS_TYPE":0,"CLASSIFICATION_TYPE":"U","NORAD_CAT_ID":61608,"ELEMENT_SET_NO":999,"REV_AT_EPOCH":6641,"BSTAR":-0.0011551779,"MEAN_MOTION_DOT":-3.97e-6,"MEAN_MOTION_DDOT":0},{"OBJECT_NAME":"ONEWEB-0704","OBJECT_ID":"2024-188R","EPOCH":"2026-01-30T02:11:42.232128","MEAN_MOTION":13.10355367,"ECCENTRICITY":0.00021575,"INCLINATION":87.877,"RA_OF_ASC_NODE":63.7553,"ARG_OF_PERICENTER":126.8114,"MEAN_ANOMALY":233.3211,"EPHEMERIS_TYPE":0,"CLASSIFICATION_TYPE":"U","NORAD_CAT_ID":61609,"ELEMENT_SET_NO":999,"REV_AT_EPOCH":6520,"BSTAR":-0.0012510349,"MEAN_MOTION_DOT":-4.24e-6,"MEAN_MOTION_DDOT":0}]
