ONEWEB-0721             
1 56725U 23068R   26030.21270927  .00000138  00000+0  29526-3 0  9993
2 56725  86.6821 129.5546 0001676 107.0332 253.0985 13.22458919139702
ONEWEB-0015             
1 61594U 24188A   26030.28860301 -.00000151  00000+0 -46199-3 0  9997
2 61594  87.8812  48.5399 0002279  81.2179 278.9207 13.11414610 66387
ONEWEB-0687             
1 61595U 24188B   26030.02694054 -.00000012  00000+0 -63095-4 0  9991
2 61595  87.9076  33.3421 0002409  90.8735 269.2673 13.17650763 67702
ONEWEB-0688             
1 61596U 24188C   26030.28344276  .00000083  00000+0  18085-3 0  9992
2 61596  87.9076  33.2906 0002876  70.6424 289.5018 13.17647307 67730
ONEWEB-0689             
1 61597U 24188D   26030.01732586  .00000190  00000+0  50059-3 0  9995
2 61597  87.8826  48.5293 0002112  98.0125 262.1242 13.11417952 66343
ONEWEB-0690             
1 61598U 24188E   26030.10380742  .00000474  00000+0  13007-2 0  9995
2 61598  87.8828  48.5325 0001243  73.8287 286.2978 13.11417732 66536
ONEWEB-0691             
1 61599U 24188F   26030.32761027  .00000330  00000+0  89537-3 0  9992
2 61599  87.8833  48.3859 0002177  84.7095 275.4281 13.11418651 66413
ONEWEB-0692             
1 61600U 24188G   26030.11906194  .00000478  00000+0  13116-2 0  9990
2 61600  87.8811  48.5673 0001827 121.5655 238.5651 13.11414933 66376
ONEWEB-0693             
1 61601U 24188H   26030.06743908  .00000071  00000+0  14930-3 0  9992
2 61601  87.9079  33.3550 0001409  62.1909 297.9365 13.17646747 67691
ONEWEB-0695             
1 61602U 24188J   26030.09531115 -.00000746  00000+0 -21393-2 0  9992
2 61602  87.8812  48.5619 0002221 103.7916 256.3459 13.11423214 66365
ONEWEB-0697             
1 61603U 24188K   26030.28013021  .00000272  00000+0  73184-3 0  9993
2 61603  87.8813  48.5147 0001752 118.2533 241.8772 13.11414633 66370
ONEWEB-0698             
1 61604U 24188L   26030.10550242  .00000520  00000+0  14319-2 0  9996
2 61604  87.8815  48.5652 0000845 124.2655 235.8553 13.11417374 66373
ONEWEB-0699             
1 61605U 24188M   26030.31387498  .00000570  00000+0  15954-2 0  9992
2 61605  87.8764  63.7397 0001652 118.1391 241.9903 13.10371736 65251
ONEWEB-0700             
1 61606U 24188N   26030.16282791  .00000400  00000+0  11093-2 0  9998
2 61606  87.8775  63.6599 0002103 115.5628 244.5717 13.10375709 65226
ONEWEB-0701             
1 61607U 24188P   26030.10304071 -.00000191  00000+0 -58443-3 0  9999
2 61607  87.8760  63.7818 0001708 123.8754 236.2536 13.10371715 65228
ONEWEB-0702             
1 61608U 24188Q   26030.30385699 -.00000397  00000+0 -11552-2 0  9994
2 61608  87.8829  48.4078 0002058 122.5464 237.5863 13.11417004 66418
ONEWEB-0704             
1 61609U 24188R   26030.09146102 -.00000424  00000+0 -12510-2 0  9991
2 61609  87.8770  63.7553 0002157 126.8114 233.3211 13.10355367 65200
